[{"OBJECT_NAME":"UM5-RIBAT","OBJECT_ID":"2024-149CQ","EPOCH":"2026-03-09T19:05:41.327808","MEAN_MOTION":15.00468196,"ECCENTRICITY":0.00032721,"INCLINATION":97.6776,"RA_OF_ASC_NODE":147.9138,"ARG_OF_PERICENTER":87.0399,"MEAN_ANOMALY":273.1199,"EPHEMERIS_TYPE":0,"CLASSIFICATION_TYPE":"U","NORAD_CAT_ID":60554,"ELEMENT_SET_NO":999,"REV_AT_EPOCH":8528,"BSTAR":0.00037992942,"MEAN_MOTION_DOT":4.725e-5,"MEAN_MOTION_DDOT":0},{"OBJECT_NAME":"STARLINK-33980","OBJECT_ID":"2025-098E","EPOCH":"2026-03-09T22:14:12.592032","MEAN_MOTION":14.98335538,"ECCENTRICITY":0.00028504,"INCLINATION":70.0008,"RA_OF_ASC_NODE":274.0325,"ARG_OF_PERICENTER":267.4615,"MEAN_ANOMALY":92.6217,"EPHEMERIS_TYPE":0,"CLASSIFICATION_TYPE":"U","NORAD_CAT_ID":63930,"ELEMENT_SET_NO":999,"REV_AT_EPOCH":4660,"BSTAR":0.00027954242,"MEAN_MOTION_DOT":3.244e-5,"MEAN_MOTION_DDOT":0}]
